STARLINK-3577           
1 51884U 22022AJ  22087.91667824 -.00047649  00000+0 -33681-3 0  9991
2 51884  53.2192  18.8800 0001038  83.8702 127.4885 15.73214168  3685
STARLINK-3584           
1 51885U 22022AK  22088.16667824 -.00091040  00000+0 -65056-3 0  9995
2 51885  53.2195  17.6387 0001191  68.8122 122.4692 15.73226336  5240
STARLINK-3565           
1 51886U 22022AL  22087.91667824  .00014911  00000+0  11052-3 0  9995
2 51886  53.2190  18.8774 0001062  61.4043 151.2365 15.73188172  3685
STARLINK-3551           
1 51887U 22022AM  22087.91667824 -.00009631  00000+0 -64297-4 0  9991
2 51887  53.2182  18.8736 0001241  92.3324 122.6825 15.73195257  3684
STARLINK-3536           
1 51888U 22022AN  22087.91667824 -.00045444  00000+0 -32116-3 0  9998
2 51888  53.2191  18.8750 0001174  83.1947 130.6549 15.73197835  3681
STARLINK-3547           
1 51889U 22022AP  22088.16667824  .00093382  00000+0  66369-3 0  9996
2 51889  53.2184  17.6340 0001198  78.2863 115.4120 15.73154343  5241
STARLINK-3519           
1 51890U 22022AQ  22087.91667824  .00047132  00000+0  33840-3 0  9990
2 51890  53.2191  18.8717 0001408  74.8533 140.7542 15.73196566  3680
STARLINK-3549           
1 51891U 22022AR  22087.91667824 -.00095558  00000+0 -68192-3 0  9996
2 51891  53.2175  18.8686 0001305  76.1754 141.5301 15.73277359  3686
STARLINK-3587           
1 51892U 22022AS  22087.91667824 -.00065204  00000+0 -46270-3 0  9995
2 51892  53.2192  18.8703 0001342  74.2056 142.1706 15.73253655  3680
STARLINK-3579           
1 51893U 22022AT  22087.91667824  .00020070  00000+0  14694-3 0  9991
2 51893  53.2182  18.8660 0001042  79.5820 139.3882 15.73221563  3682
STARLINK-3595           
1 51894U 22022AU  22087.91667824 -.00066286  00000+0 -47045-3 0  9999
2 51894  53.2191  18.8661 0001267  92.6083 125.6749 15.73256961  3680
STARLINK-3594           
1 51895U 22022AV  22087.91667824  .00048831  00000+0  35042-3 0  9998
2 51895  53.2187  18.8644 0001167  80.6079 139.5915 15.73193212  3697
STARLINK-3593           
1 51896U 22022AW  22088.16667824 -.00049723  00000+0 -35149-3 0  9998
2 51896  53.2192  17.6277 0001081  61.6007 134.8158 15.73231317  5292
STARLINK-3598           
1 51897U 22022AX  22088.16667824 -.00054526  00000+0 -38656-3 0  9992
2 51897  53.2194  17.6263 0001190  76.4273 121.1733 15.73202962  5247
STARLINK-3597           
1 51898U 22022AY  22088.16667824 -.00112306  00000+0 -80505-3 0  9994
2 51898  53.2191  17.6238 0001299  69.6795 128.6118 15.73241456  5295
FALCON 9 DEB            
1 51899U 22022AZ  22088.19928937  .00367521  66742-4  79270-3 0  9999
2 51899  53.2280  14.5838 0003227 355.0350   5.0648 15.97935387  4080
FALCON 9 DEB            
1 51900U 22022BA  22088.06224681  .00405182  80447-4  81011-3 0  9993
2 51900  53.2231  15.1343 0002251 295.5352  64.5447 15.99275751  4062
FALCON 9 DEB            
1 51901U 22022BB  22088.16818567  .00361937  66868-4  68148-3 0  9993
2 51901  53.2217  14.3503 0005921 325.5672  34.4975 16.00309888  4088
FALCON 9 DEB            
1 51902U 22022BC  22088.16565613  .00390511  76465-4  72833-3 0  9995
2 51902  53.2180  14.3289 0005913 303.3978  56.6488 16.00464899  4082
2022-023A               
1 51946U 22023A   22088.24128766  .00004110  00000+0  17745-3 0  9992
2 51946  63.4535 113.2391 0018953 311.0747 127.9425 15.24004140  3668
2022-023B               
1 51947U 22023B   22088.11090981  .00010891  00000+0  45222-3 0  9990
2 51947  63.4502 113.6472 0019357 309.2451 154.0376 15.24105084  3640
2022-023C               
1 51948U 22023C   22088.11713221  .00004612  00000+0  19735-3 0  9994
2 51948  63.4463 113.6632 0018636 301.9607 162.5613 15.24104920  3642
2022-023D               
1 51949U 22023D   22088.11904998  .00004223  00000+0  18178-3 0  9996
2 51949  63.4506 113.6862 0017097 307.4861 157.4435 15.24081150  3643
2022-023E               
1 51950U 22023E   22088.39066917 -.00168229  00000+0 -71087-2 0  9994
2 51950  63.4473 112.7496 0016608 307.0738 198.6312 15.23575781  3689
2022-023F               
1 51951U 22023F   22088.19103984 -.01606402  00000+0 -74332-1 0  9995
2 51951  63.4425 113.4518 0016815 301.7458 176.7726 15.22959326  3653
2022-023G               
1 51952U 22023G   22088.11506750  .00005011  00000+0  20729-3 0  9995
2 51952  63.4396 113.6421 0017551 304.6078 159.4864 15.25136183  3645
2022-023H               
1 51953U 22023H   22088.21226859  .00001796  00000+0  13636-3 0  9991
2 51953  63.6393 117.2437 0115247 247.2940 111.5934 15.00960163  3602
NOOR-2                  
1 51954U 22024A   22088.11947674  .00005391  00000+0  25494-3 0  9997
2 51954  58.2901  60.8389 0013291 282.9322 204.0110 15.20798449  3177
QASED R/B               
1 51955U 22024B   22087.69538227  .00003122  00000+0  15150-3 0  9998
2 51955  58.2938  62.4894 0010272 292.0208  67.9767 15.21235637  3101
STARLINK-3700           
1 51956U 22025A   22087.91667824 -.00046877  00000+0 -33073-3 0  9991
2 51956  53.2198  43.9967 0001044  98.3752 260.2289 15.73250807  3276
STARLINK-3694           
1 51957U 22025B   22087.91667824  .00003390  00000+0  28529-4 0  9994
2 51957  53.2193  43.9889 0000991 116.1526 245.6823 15.73224715  3273
STARLINK-3692           
1 51958U 22025C   22087.91667824 -.00042245  00000+0 -29760-3 0  9996
2 51958  53.2198  43.9954 0001169 115.0057 244.2772 15.73238574  3273
STARLINK-3704           
1 51959U 22025D   22088.16667824 -.00088701  00000+0 -63294-3 0  9992
2 51959  53.2191  42.7550 0001058 100.0961 237.7597 15.73249176  4353
STARLINK-3691           
1 51960U 22025E   22087.91667824 -.00047109  00000+0 -33216-3 0  9994
2 51960  53.2176  43.9892 0001287 106.7625 255.6835 15.73267002  3276
STARLINK-3689           
1 51961U 22025F   22088.16667824 -.00050738  00000+0 -35926-3 0  9995
2 51961  53.2193  42.7578 0001144  97.5727 239.0585 15.73201487  4371
STARLINK-3697           
1 51962U 22025G   22088.16667824 -.00091675  00000+0 -65546-3 0  9992
2 51962  53.2189  42.7512 0001247 111.4148 229.0896 15.73216010  4374
STARLINK-3675           
1 51963U 22025H   22088.16667824 -.00087464  00000+0 -62462-3 0  9998
2 51963  53.2195  42.7565 0001137 105.0105 232.2859 15.73224409  4354
STARLINK-3690           
1 51964U 22025J   22087.91667824 -.00017710  00000+0 -12199-3 0  9990
2 51964  53.2175  43.9825 0000785  94.5986 271.1469 15.73210438  3278
STARLINK-3696           
1 51965U 22025K   22087.91667824 -.00037177  00000+0 -26098-3 0  9993
2 51965  53.2197  43.9873 0001221 118.7111 244.3574 15.73259052  3275
STARLINK-3699           
1 51966U 22025L   22087.91667824 -.00060232  00000+0 -42730-3 0  9993
2 51966  53.2177  43.9802 0001278  98.9952 267.9635 15.73228118  3278
STARLINK-3695           
1 51967U 22025M   22088.16667824 -.00048321  00000+0 -34161-3 0  9996
2 51967  53.2197  42.7493 0001180 108.4029 232.6768 15.73216864  4371
STARLINK-3681           
1 51968U 22025N   22088.16667824 -.00079141  00000+0 -56427-3 0  9990
2 51968  53.2177  42.7421 0001051  87.6990 257.2400 15.73221869  4369
STARLINK-3680           
1 51969U 22025P   22087.91667824 -.00014910  00000+0 -10193-3 0  9996
2 51969  53.2175  43.9837 0000923  94.6967 270.3479 15.73218322  3272
STARLINK-3677           
1 51970U 22025Q   22087.91667824 -.00040337  00000+0 -28380-3 0  9997
2 51970  53.2179  43.9756 0001221  87.1638 282.2795 15.73246104  3274
STARLINK-3669           
1 51971U 22025R   22087.91667824 -.00073450  00000+0 -52250-3 0  9993
2 51971  53.2197  43.9814 0001068 112.4772 253.8465 15.73244839  3271
STARLINK-3671           
1 51972U 22025S   22088.16667824 -.00085884  00000+0 -61270-3 0  9998
2 51972  53.2179  42.7373 0001184  87.9039 259.5634 15.73240886  4360
STARLINK-3679           
1 51973U 22025T   22087.91667824 -.00077438  00000+0 -55151-3 0  9998
2 51973  53.2176  43.9759 0001000  86.1551 282.7349 15.73239238  3275
STARLINK-3672           
1 51974U 22025U   22088.16667824 -.00457822  00000+0 -30786-2 0  9992
2 51974  53.2174  42.0596 0001160 109.7942 212.1490 15.75738712  4364
STARLINK-3674           
1 51975U 22025V   22087.91667824 -.00061351  00000+0 -43510-3 0  9993
2 51975  53.2177  43.9697 0000963  95.5562 276.4957 15.73243863  3276
STARLINK-3663           
1 51976U 22025W   22088.16667824 -.00080742  00000+0 -57642-3 0  9998
2 51976  53.2186  42.7369 0001122  75.6216 272.5116 15.73200036  4363
STARLINK-3660           
1 51977U 22025X   22088.16667824 -.00457983  00000+0 -30800-2 0  9990
2 51977  53.2174  42.0606 0001111  86.1205 235.2004 15.75737111  4364
STARLINK-3666           
1 51978U 22025Y   22087.91667824 -.00095661  00000+0 -68295-3 0  9994
2 51978  53.2187  43.9652 0001024  95.0462 279.5646 15.73268546  3278
STARLINK-3656           
1 51979U 22025Z   22087.91667824 -.00060874  00000+0 -43162-3 0  9999
2 51979  53.2183  43.9737 0000932  94.9575 275.1596 15.73246019  3276
STARLINK-3649           
1 51980U 22025AA  22088.16667824 -.00077162  00000+0 -54993-3 0  9991
2 51980  53.2184  42.7270 0000947  85.2978 267.2828 15.73221463  4350
STARLINK-3635           
1 51981U 22025AB  22088.16667824 -.00103083  00000+0 -73738-3 0  9992
2 51981  53.2182  42.7335 0001207  89.5271 259.8249 15.73253924  4366
STARLINK-3650           
1 51982U 22025AC  22088.16667824 -.00072265  00000+0 -51440-3 0  9996
2 51982  53.2186  42.7260 0001059  80.5324 272.7045 15.73223565  4369
STARLINK-3655           
1 51983U 22025AD  22087.91667824 -.00078291  00000+0 -55742-3 0  9993
2 51983  53.2191  43.9665 0001112  88.9251 285.0470 15.73250261  3270
STARLINK-3664           
1 51984U 22025AE  22088.16667824 -.00068300  00000+0 -48592-3 0  9997
2 51984  53.2187  42.7221 0000950  80.4629 274.6803 15.73213402  4367
STARLINK-3651           
1 51985U 22025AF  22087.91667824 -.00078496  00000+0 -55887-3 0  9992
2 51985  53.2185  43.9630 0001226  96.7240 278.5286 15.73251232  3279
